line1,line2,validFromUtcTime
1 00000U 00000E   26001.00000000  .00000000  00000-0  27772-4 0    01,2 00000  88.9257 150.3354 0010046 270.0092 269.8656 13.55304346    09,2026-01-01T00:00:00Z
1 00000U 00000E   26002.00000000  .00000000  00000-0  27772-4 0    02,2 00000  88.9257 150.2261 0010046 267.0988 108.9597 13.55304384    04,2026-01-02T00:00:00Z
